[{"OBJECT_NAME":"STARLINK-4564","OBJECT_ID":"2022-101AK","EPOCH":"2026-03-09T23:04:53.375232","MEAN_MOTION":15.08839988,"ECCENTRICITY":0.00015277,"INCLINATION":53.2181,"RA_OF_ASC_NODE":53.0847,"ARG_OF_PERICENTER":92.8162,"MEAN_ANOMALY":267.3005,"EPHEMERIS_TYPE":0,"CLASSIFICATION_TYPE":"U","NORAD_CAT_ID":53560,"ELEMENT_SET_NO":999,"REV_AT_EPOCH":19648,"BSTAR":4.7093745e-5,"MEAN_MOTION_DOT":4.62e-6,"MEAN_MOTION_DDOT":0},{"OBJECT_NAME":"GRBBETA","OBJECT_ID":"2024-128C","EPOCH":"2026-03-09T16:58:19.607232","MEAN_MOTION":15.05794613,"ECCENTRICITY":0.0051339,"INCLINATION":61.9904,"RA_OF_ASC_NODE":205.0764,"ARG_OF_PERICENTER":114.1677,"MEAN_ANOMALY":246.4795,"EPHEMERIS_TYPE":0,"CLASSIFICATION_TYPE":"U","NORAD_CAT_ID":60237,"ELEMENT_SET_NO":999,"REV_AT_EPOCH":9128,"BSTAR":0.00046403869,"MEAN_MOTION_DOT":6.748e-5,"MEAN_MOTION_DDOT":0}]
